TECHDEMOSAT-1 (TDS-1)   
1 40076U 14037H   26068.92236573  .00011104  00000+0  65800-3 0  9999
2 40076  98.3776  51.4583 0004745 234.8100 125.2683 15.11581991633227
STARLINK-30108          
1 56299U 23056P   26068.54692556 -.00002151  00000+0 -11040-3 0  9990
2 56299  43.0001 197.0429 0001701 278.3718  81.6935 15.11980738160224
